ORBCOMM FM33            
1 25983U 99065D   25288.66049254  .00001328  00000+0  45974-3 0  9992
2 25983  45.0272 146.0779 0008296 314.0238  45.9928 14.40294861353433
ORBCOMM FM36            
1 25984U 99065E   25288.57303530  .00001929  00000+0  67205-3 0  9991
2 25984  45.0389 240.2601 0002462 233.0350 127.0274 14.38462444351758
ORBCOMM FM35            
1 25985U 99065F   25288.57073304  .00001662  00000+0  59813-3 0  9995
2 25985  45.0391 246.2728 0005664 289.7936  70.2302 14.37392433352103
ORBCOMM FM34            
1 25986U 99065G   25288.60550948  .00001397  00000+0  51054-3 0  9998
2 25986  45.0386 246.5637 0004746 254.4358 105.5966 14.37378374352226
ORBCOMM FM38            
1 33060U 08031A   25288.59778920  .00002847  00000+0  38293-3 0  9994
2 33060  48.4383 101.2149 0005288 204.0791 155.9878 14.81863239932606
ORBCOMM FM41            
1 33061U 08031B   25288.57623267  .00002705  00000+0  36893-3 0  9993
2 33061  48.4416 109.5184 0004419 189.5917 214.4192 14.81430584932081
ORBCOMM FM29            
1 33062U 08031C   25288.63216880  .00002636  00000+0  35920-3 0  9993
2 33062  48.4367 116.9071 0006070 187.2172 287.5251 14.81555587932007
ORBCOMM FM39            
1 33063U 08031D   25288.28886486  .00002175  00000+0  31188-3 0  9990
2 33063  48.4382 144.1579 0006699 155.5062 204.6172 14.80046668931582
